ORBCOMM FM115           
1 41186U 15081H   24223.90009353  .00003076  00000+0  65585-3 0  9994
2 41186  46.9983  73.8259 0000181 135.9875 224.1026 14.60992627462378
ORBCOMM FM108           
1 41187U 15081J   24223.86677365  .00004292  00000+0  98546-3 0  9998
2 41187  47.0035 131.2249 0002613 321.6655  38.4044 14.56837573461524
ORBCOMM FM117           
1 41188U 15081K   24224.79285671  .00005280  00000+0  12035-2 0  9993
2 41188  46.9996 125.7235 0003170 337.3273  22.7472 14.56835385461756
ORBCOMM FM116           
1 41189U 15081L   24224.36985042  .00001826  00000+0  44105-3 0  9992
2 41189  47.0004 217.5357 0001729  32.6001 327.4991 14.56817122460520
